LEMUR-2-PETERG          
1 42841U 17042S   26068.48235713  .00023240  00000+0  81076-3 0  9993
2 42841  97.3980 253.6596 0003700 341.6938  18.4169 15.29611459473171
STARLINK-30088          
1 57462U 23107F   26068.09384293  .00006778  00000+0  26191-3 0  9996
2 57462  43.0038 339.6676 0001941 259.6478 100.4155 15.26769614145058
